[{"OBJECT_NAME":"ONEWEB-0535","OBJECT_ID":"2022-138AL","EPOCH":"2026-03-09T18:13:23.077632","MEAN_MOTION":13.1972522,"ECCENTRICITY":0.00016802,"INCLINATION":87.9238,"RA_OF_ASC_NODE":324.7627,"ARG_OF_PERICENTER":67.3374,"MEAN_ANOMALY":292.7936,"EPHEMERIS_TYPE":0,"CLASSIFICATION_TYPE":"U","NORAD_CAT_ID":54147,"ELEMENT_SET_NO":999,"REV_AT_EPOCH":16372,"BSTAR":-0.00051141611,"MEAN_MOTION_DOT":-1.92e-6,"MEAN_MOTION_DDOT":0},{"OBJECT_NAME":"COSMOS 1691 DEB","OBJECT_ID":"1985-094S","EPOCH":"2026-03-09T21:55:37.718400","MEAN_MOTION":13.13898461,"ECCENTRICITY":0.00353764,"INCLINATION":82.5538,"RA_OF_ASC_NODE":233.7095,"ARG_OF_PERICENTER":314.6673,"MEAN_ANOMALY":170.0595,"EPHEMERIS_TYPE":0,"CLASSIFICATION_TYPE":"U","NORAD_CAT_ID":17168,"ELEMENT_SET_NO":999,"REV_AT_EPOCH":89038,"BSTAR":0.0071438608,"MEAN_MOTION_DOT":2.646e-5,"MEAN_MOTION_DDOT":0}]
